NORAD_CAT_ID,OBJECT_NAME,OBJECT_TYPE,EPOCH,MEAN_MOTION,ECCENTRICITY,INCLINATION,RA_OF_ASC_NODE,ARG_OF_PERICENTER,MEAN_ANOMALY,BSTAR,MEAN_MOTION_DOT,MEAN_MOTION_DDOT,TLE_LINE0,TLE_LINE1,TLE_LINE2,SEMIMAJOR_AXIS,PERIOD,APOGEE,PERIGEE,DECAYED
54187.0,STARLINK-5240,PAYLOAD,2024-06-02 08:02:54,15.08835382,0.0001275,53.2187,21.0547,86.5014,273.6124,4.2791e-05,3.93e-06,0.0,0 STARLINK-5240,1 54187U 22141AG  24154.33535337  .00000393  00000-0  42791-4 0  9995,2 54187  53.2187  21.0547 0001275  86.5014 273.6124 15.08835382 88432,6917.895,95.438,540.642,538.877,0.0
54187.0,STARLINK-5240,PAYLOAD,2024-06-03 01:32:08,15.08848492,0.0001262,53.2174,17.7825,84.5735,275.5401,0.00013892,1.924e-05,0.0,0 STARLINK-5240,1 54187U 22141AG  24155.06398386  .00001924  00000-0  13892-3 0  9997,2 54187  53.2174  17.7825 0001262  84.5735 275.5401 15.08848492 88775,6917.854,95.437,540.592,538.846,0.0
54187.0,STARLINK-5240,PAYLOAD,2024-06-03 07:53:40,15.08842376,3.23e-05,53.2172,16.5915,98.28,261.8229,3.9247e-05,3.37e-06,0.0,0 STARLINK-5240,1 54187U 22141AG  24155.32894168  .00000337  00000-0  39247-4 0  9995,2 54187  53.2172  16.5915 0000323  98.2800 261.8229 15.08842376 88582,6917.873,95.437,539.962,539.515,0.0
54187.0,STARLINK-5240,PAYLOAD,2024-06-03 23:47:32,15.08843519,0.0001326,53.2167,13.6173,75.6273,284.4867,0.00013177,1.81e-05,0.0,0 STARLINK-5240,1 54187U 22141AG  24155.99134830  .00001810  00000-0  13177-3 0  9991,2 54187  53.2167  13.6173 0001326  75.6273 284.4867 15.08843519 88913,6917.87,95.437,540.652,538.817,0.0
54187.0,STARLINK-5240,PAYLOAD,2024-06-04 07:44:27,15.08841288,2.36e-05,53.2165,12.1309,66.2391,293.8626,7.1972e-05,8.58e-06,0.0,0 STARLINK-5240,1 54187U 22141AG  24156.32254500  .00000858  00000-0  71972-4 0  9995,2 54187  53.2165  12.1309 0000236  66.2391 293.8626 15.08841288 88730,6917.876,95.437,539.905,539.578,0.0
54187.0,STARLINK-5240,PAYLOAD,2024-06-04 20:27:33,15.08843366,0.0001062,53.2103,9.7523,80.1923,279.9188,-5.4694e-05,-1.158e-05,0.0,0 STARLINK-5240,1 54187U 22141AG  24156.85246758 -.00001158  00000-0 -54694-4 0  9997,2 54187  53.2103   9.7523 0001062  80.1923 279.9188 15.08843366 88812,6917.87,95.437,540.47,539.0,0.0
54187.0,STARLINK-5240,PAYLOAD,2024-06-05 13:56:48,15.08838612,0.0001393,53.2157,6.4815,94.5276,265.5875,9.7318e-05,1.261e-05,0.0,0 STARLINK-5240,1 54187U 22141AG  24157.58111206  .00001261  00000-0  97318-4 0  9990,2 54187  53.2157   6.4815 0001393  94.5276 265.5875 15.08838612 88920,6917.885,95.438,540.713,538.786,0.0
54187.0,STARLINK-5240,PAYLOAD,2024-06-05 20:18:20,15.08841379,0.0001907,53.2137,5.2913,93.9157,266.2053,9.5277e-05,1.229e-05,0.0,0 STARLINK-5240,1 54187U 22141AG  24157.84607259  .00001229  00000-0  95277-4 0  9993,2 54187  53.2137   5.2913 0001907  93.9157 266.2053 15.08841379 88960,6917.876,95.437,541.06,538.422,0.0
54187.0,STARLINK-5240,PAYLOAD,2024-06-05 23:29:07,15.08838225,0.0001566,53.2155,4.6972,96.5722,263.5448,0.00012617,1.72e-05,0.0,0 STARLINK-5240,1 54187U 22141AG  24157.97855370  .00001720  00000-0  12617-3 0  9998,2 54187  53.2155   4.6972 0001566  96.5722 263.5448 15.08838225 89219,6917.886,95.438,540.834,538.667,0.0
54187.0,STARLINK-5240,PAYLOAD,2024-06-07 13:38:22,15.08838958,0.0001631,53.2133,357.5599,99.2577,260.86,0.00013481,1.858e-05,0.0,0 STARLINK-5240,1 54187U 22141AG  24159.56831753  .00001858  00000-0  13481-3 0  9996,2 54187  53.2133 357.5599 0001631  99.2577 260.8600 15.08838958 89225,6917.884,95.438,540.877,538.62,0.0
54187.0,STARLINK-5240,PAYLOAD,2024-06-07 19:59:55,15.08844392,0.0001602,53.2122,356.3729,85.9103,274.2072,0.0002017,2.924e-05,0.0,0 STARLINK-5240,1 54187U 22141AG  24159.83327556  .00002924  00000-0  20170-3 0  9995,2 54187  53.2122 356.3729 0001602  85.9103 274.2072 15.08844392 89490,6917.867,95.437,540.84,538.624,0.0
54187.0,STARLINK-5240,PAYLOAD,2024-06-08 13:29:09,15.08857934,0.0001556,53.2167,353.1001,78.2375,281.8791,-0.00018718,-3.267e-05,0.0,0 STARLINK-5240,1 54187U 22141AG  24160.56191653 -.00003267  00000-0 -18718-3 0  9992,2 54187  53.2167 353.1001 0001556  78.2375 281.8791 15.08857934 89376,6917.826,95.436,540.767,538.614,0.0
54187.0,STARLINK-5240,PAYLOAD,2024-06-08 19:50:41,15.08857711,0.0002211,53.2225,351.9131,88.9822,271.1424,0.0002108,3.07e-05,0.0,0 STARLINK-5240,1 54187U 22141AG  24160.82686945  .00003070  00000-0  21080-3 0  9990,2 54187  53.2225 351.9131 0002211  88.9822 271.1424 15.08857711 89418,6917.826,95.436,541.221,538.162,0.0
54187.0,STARLINK-5240,PAYLOAD,2024-06-09 13:19:57,15.08821144,0.0001372,53.2122,348.6404,78.1608,281.9538,-0.00027794,-4.706e-05,0.0,0 STARLINK-5240,1 54187U 22141AG  24161.55552462 -.00004706  00000-0 -27794-3 0  9994,2 54187  53.2122 348.6404 0001372  78.1608 281.9538 15.08821144 89753,6917.938,95.439,540.752,538.854,0.0
54187.0,STARLINK-5240,PAYLOAD,2024-06-09 19:41:29,15.08831939,0.0001112,53.2133,347.4504,64.0536,296.0571,-9.9178e-05,-1.865e-05,0.0,0 STARLINK-5240,1 54187U 22141AG  24161.82048088 -.00001865  00000-0 -99178-4 0  9997,2 54187  53.2133 347.4504 0001112  64.0536 296.0571 15.08831939 89790,6917.905,95.438,540.539,539.001,0.0
54187.0,STARLINK-5240,PAYLOAD,2024-06-10 05:13:48,15.08833778,0.0001622,53.2159,345.6665,84.8926,275.2251,1.7617e-07,-2.85e-06,0.0,0 STARLINK-5240,1 54187U 22141AG  24162.21792184 -.00000285  00000-0  17617-6 0  9998,2 54187  53.2159 345.6665 0001622  84.8926 275.2251 15.08833778 89624,6917.899,95.438,540.886,538.642,0.0
54187.0,STARLINK-5240,PAYLOAD,2024-06-10 19:32:15,15.08851529,0.0001008,53.2171,342.9899,87.9446,272.1662,0.00014057,1.951e-05,0.0,0 STARLINK-5240,1 54187U 22141AG  24162.81407231  .00001951  00000-0  14057-3 0  9992,2 54187  53.2171 342.9899 0001008  87.9446 272.1662 15.08851529 89947,6917.845,95.437,540.407,539.013,0.0
54187.0,STARLINK-5240,PAYLOAD,2024-06-11 05:04:34,15.08847703,0.0001398,53.2183,341.2062,71.7768,288.3377,0.00015902,2.244e-05,0.0,0 STARLINK-5240,1 54187U 22141AG  24163.21151543  .00002244  00000-0  15902-3 0  9995,2 54187  53.2183 341.2062 0001398  71.7768 288.3377 15.08847703 90004,6917.857,95.437,540.689,538.755,0.0
54187.0,STARLINK-5240,PAYLOAD,2024-06-12 04:55:22,15.0884123,0.0001473,53.2183,336.7488,83.3003,276.8157,0.00011104,1.48e-05,0.0,0 STARLINK-5240,1 54187U 22141AG  24164.20512044  .00001480  00000-0  11104-3 0  9993,2 54187  53.2183 336.7488 0001473  83.3003 276.8157 15.08841230 90153,6917.877,95.437,540.761,538.723,0.0
54187.0,STARLINK-5240,PAYLOAD,2024-06-12 17:38:27,15.08838181,0.0001577,53.218,334.3687,86.9522,273.1651,-4.6791e-05,-1.033e-05,0.0,0 STARLINK-5240,1 54187U 22141AG  24164.73504369 -.00001033  00000-0 -46791-4 0  9999,2 54187  53.2180 334.3687 0001577  86.9522 273.1651 15.08838181 90009,6917.886,95.438,540.842,538.66,0.0
54187.0,STARLINK-5240,PAYLOAD,2024-06-13 11:07:42,15.08841446,0.0001298,53.2184,331.0981,88.0153,272.0987,0.00013535,1.867e-05,0.0,0 STARLINK-5240,1 54187U 22141AG  24165.46368076  .00001867  00000-0  13535-3 0  9995,2 54187  53.2184 331.0981 0001298  88.0153 272.0987 15.08841446 90342,6917.876,95.437,540.639,538.843,0.0
54187.0,STARLINK-5240,PAYLOAD,2024-06-13 14:18:28,15.08842944,0.0001415,53.2173,330.5039,84.809,275.3064,0.00013,1.782e-05,0.0,0 STARLINK-5240,1 54187U 22141AG  24165.59616010  .00001782  00000-0  13000-3 0  9996,2 54187  53.2173 330.5039 0001415  84.8090 275.3064 15.08842944 90136,6917.871,95.437,540.715,538.758,0.0
54187.0,STARLINK-5240,PAYLOAD,2024-06-13 17:29:14,15.08847357,0.0001402,53.2177,329.9085,90.7112,269.404,0.00023594,3.47e-05,0.0,0 STARLINK-5240,1 54187U 22141AG  24165.72863921  .00003470  00000-0  23594-3 0  9991,2 54187  53.2177 329.9085 0001402  90.7112 269.4040 15.08847357 90153,6917.858,95.437,540.693,538.753,0.0
54187.0,STARLINK-5240,PAYLOAD,2024-06-14 14:09:15,15.08846278,0.0001485,53.2177,326.0424,92.1473,267.969,-0.00021181,-3.658e-05,0.0,0 STARLINK-5240,1 54187U 22141AG  24166.58975925 -.00003658  00000-0 -21181-3 0  9994,2 54187  53.2177 326.0424 0001485  92.1473 267.9690 15.08846278 90284,6917.861,95.437,540.754,538.699,0.0
54187.0,STARLINK-5240,PAYLOAD,2024-06-14 20:30:48,15.08844186,0.0001291,53.2176,324.8539,80.4814,279.6324,0.00015985,2.257e-05,0.0,0 STARLINK-5240,1 54187U 22141AG  24166.85472268  .00002257  00000-0  15985-3 0  9993,2 54187  53.2176 324.8539 0001291  80.4814 279.6324 15.08844186 90325,6917.868,95.437,540.626,538.839,0.0
54187.0,STARLINK-5240,PAYLOAD,2024-06-15 14:00:02,15.08842926,0.0001334,53.2175,321.5802,86.0009,274.1135,5.3886e-05,5.7e-06,0.0,0 STARLINK-5240,1 54187U 22141AG  24167.58336306  .00000570  00000-0  53886-4 0  9995,2 54187  53.2175 321.5802 0001334  86.0009 274.1135 15.08842926 90439,6917.871,95.437,540.659,538.814,0.0
54187.0,STARLINK-5240,PAYLOAD,2024-06-15 17:10:48,15.08846731,0.00013,53.2177,320.9882,81.446,278.6679,0.00013191,1.812e-05,0.0,0 STARLINK-5240,1 54187U 22141AG  24167.71584120  .00001812  00000-0  13191-3 0  9993,2 54187  53.2177 320.9882 0001300  81.4460 278.6679 15.08846731 90457,6917.86,95.437,540.624,538.825,0.0
54187.0,STARLINK-5240,PAYLOAD,2024-06-16 13:50:49,15.08845207,0.0001334,53.2182,317.1234,79.6157,280.4985,0.00011567,1.554e-05,0.0,0 STARLINK-5240,1 54187U 22141AG  24168.57696060  .00001554  00000-0  11567-3 0  9993,2 54187  53.2182 317.1234 0001334  79.6157 280.4985 15.08845207 90583,6917.864,95.437,540.652,538.807,0.0
54187.0,STARLINK-5240,PAYLOAD,2024-06-16 17:01:35,15.08849738,0.0001329,53.2183,316.5294,81.7462,278.3681,0.00017174,2.447e-05,0.0,0 STARLINK-5240,1 54187U 22141AG  24168.70943771  .00002447  00000-0  17174-3 0  9994,2 54187  53.2183 316.5294 0001329  81.7462 278.3681 15.08849738 90605,6917.851,95.437,540.635,538.796,0.0
54187.0,STARLINK-5240,PAYLOAD,2024-06-17 18:27:46,15.08837254,0.0001305,53.2193,311.771,89.4735,270.6407,-8.7708e-06,-4.27e-06,0.0,0 STARLINK-5240,1 54187U 22141AG  24169.76928785 -.00000427  00000-0 -87708-5 0  9999,2 54187  53.2193 311.7710 0001305  89.4735 270.6407 15.08837254 90991,6917.889,95.438,540.657,538.851,0.0
